STARLINK-30426          
1 57848U 23141J   26068.88263382  .00001173  00000+0  51744-4 0  9991
2 57848  53.1598 283.2593 0001437 117.1697 242.9451 15.30189936140359
NUSAT-48 (HENRIETTA LE*)
1 60498U 24149AG  26068.80506098  .00012988  00000+0  45212-3 0  9999
2 60498  97.3923 150.8264 0002754 263.3026  96.7901 15.29812597 86946
